start=new Date('2021-09-06T00:00:00.000Z').valueOf();
sats=[{"MEAN_MOTION_DDOT":"0.0000000000000","OBJECT_TYPE":"PAYLOAD","INCLINATION":"53.0537","CENTER_NAME":"EARTH","ELEMENT_SET_NO":"999","SEMIMAJOR_AXIS":"6925.356","OBJECT_NAME":"STARLINK-1617","REV_AT_EPOCH":"5621","SITE":"AFETR","LAUNCH_DATE":"2020-09-03","REF_FRAME":"TEME","RA_OF_ASC_NODE":"206.0887","MEAN_MOTION":"15.06397522","MEAN_ELEMENT_THEORY":"SGP4","BSTAR":"-0.00003236600000","PERIAPSIS":"546.110","MEAN_ANOMALY":"306.9891","OBJECT_ID":"2020-062AB","TIME_SYSTEM":"UTC","MEAN_MOTION_DOT":"-0.00000764","FILE":"3109348","ARG_OF_PERICENTER":"53.1245","CLASSIFICATION_TYPE":"U","ECCENTRICITY":"0.00016040","APOAPSIS":"548.332","COUNTRY_CODE":"US","EPHEMERIS_TYPE":"0","PERIOD":"95.592","EPOCH":"2021-09-05T14:59:04.394688","RCS_SIZE":"LARGE","TLE_LINE1":"1 46350U 20062AB  21248.62435642 -.00000764  00000-0 -32366-4 0  9990","DECAY_DATE":null,"TLE_LINE2":"2 46350  53.0537 206.0887 0001604  53.1245 306.9891 15.06397522 56215","NORAD_CAT_ID":"46350","GP_ID":"184164946"},{"CENTER_NAME":"EARTH","OBJECT_TYPE":"PAYLOAD","MEAN_MOTION_DDOT":"0.0000000000000","INCLINATION":"53.0534","SITE":"AFETR","SEMIMAJOR_AXIS":"6925.366","ELEMENT_SET_NO":"999","REV_AT_EPOCH":"5666","OBJECT_NAME":"STARLINK-1646","RA_OF_ASC_NODE":"186.3743","MEAN_MOTION":"15.06394336","LAUNCH_DATE":"2020-09-03","REF_FRAME":"TEME","BSTAR":"0.00000567320000","PERIAPSIS":"545.955","MEAN_ELEMENT_THEORY":"SGP4","MEAN_MOTION_DOT":"-0.00000197","TIME_SYSTEM":"UTC","MEAN_ANOMALY":"297.7940","OBJECT_ID":"2020-062AC","APOAPSIS":"548.507","COUNTRY_CODE":"US","ARG_OF_PERICENTER":"62.3236","FILE":"3109272","ECCENTRICITY":"0.00018420","CLASSIFICATION_TYPE":"U","RCS_SIZE":"LARGE","EPOCH":"2021-09-05T13:31:30.091872","EPHEMERIS_TYPE":"0","PERIOD":"95.592","DECAY_DATE":null,"NORAD_CAT_ID":"46351","TLE_LINE2":"2 46351  53.0534 186.3743 0001842  62.3236 297.7940 15.06394336 56661","GP_ID":"184142617","TLE_LINE1":"1 46351U 20062AC  21248.56354273 -.00000197  00000-0  56732-5 0  9997"},{"TIME_SYSTEM":"UTC","MEAN_MOTION_DOT":"-0.00000243","OBJECT_ID":"2020-062AD","MEAN_ANOMALY":"302.7491","COUNTRY_CODE":"US","APOAPSIS":"548.318","CLASSIFICATION_TYPE":"U","ECCENTRICITY":"0.00016380","FILE":"3109252","ARG_OF_PERICENTER":"57.3656","EPOCH":"2021-09-05T13:04:56.900928","RCS_SIZE":"LARGE","PERIOD":"95.592","EPHEMERIS_TYPE":"0","TLE_LINE2":"2 46352  53.0537 186.4474 0001638  57.3656 302.7491 15.06409788 56486","NORAD_CAT_ID":"46352","GP_ID":"184139507","DECAY_DATE":null,"TLE_LINE1":"1 46352U 20062AD  21248.54510302 -.00000243  00000-0  26195-5 0  9995","CENTER_NAME":"EARTH","INCLINATION":"53.0537","MEAN_MOTION_DDOT":"0.0000000000000","OBJECT_TYPE":"PAYLOAD","SITE":"AFETR","OBJECT_NAME":"STARLINK-1653","REV_AT_EPOCH":"5648","SEMIMAJOR_AXIS":"6925.319","ELEMENT_SET_NO":"999","MEAN_MOTION":"15.06409788","RA_OF_ASC_NODE":"186.4474","REF_FRAME":"TEME","LAUNCH_DATE":"2020-09-03","PERIAPSIS":"546.049","BSTAR":"0.00000261950000","MEAN_ELEMENT_THEORY":"SGP4"},{"MEAN_ELEMENT_THEORY":"SGP4","PERIAPSIS":"546.182","BSTAR":"0.00008822300000","REF_FRAME":"TEME","LAUNCH_DATE":"2020-09-03","RA_OF_ASC_NODE":"206.1621","MEAN_MOTION":"15.06390043","OBJECT_NAME":"STARLINK-1656","REV_AT_EPOCH":"5620","SEMIMAJOR_AXIS":"6925.379","ELEMENT_SET_NO":"999","SITE":"AFETR","INCLINATION":"53.0542","MEAN_MOTION_DDOT":"0.0000000000000","OBJECT_TYPE":"PAYLOAD","CENTER_NAME":"EARTH","TLE_LINE1":"1 46353U 20062AE  21248.60962281  .00001032  00000-0  88223-4 0  9995","GP_ID":"184166195","TLE_LINE2":"2 46353  53.0542 206.1621 0001534  49.5402 310.5720 15.06390043 56209","NORAD_CAT_ID":"46353","DECAY_DATE":null,"PERIOD":"95.593","EPHEMERIS_TYPE":"0","EPOCH":"2021-09-05T14:37:51.410784","RCS_SIZE":"LARGE","CLASSIFICATION_TYPE":"U","ECCENTRICITY":"0.00015340","FILE":"3109348","ARG_OF_PERICENTER":"49.5402","COUNTRY_CODE":"US","APOAPSIS":"548.306","OBJECT_ID":"2020-062AE","MEAN_ANOMALY":"310.5720","TIME_SYSTEM":"UTC","MEAN_MOTION_DOT":"0.00001032"},{"COUNTRY_CODE":"US","APOAPSIS":"548.230","ECCENTRICITY":"0.00014380","CLASSIFICATION_TYPE":"U","ARG_OF_PERICENTER":"57.7521","FILE":"3109348","MEAN_MOTION_DOT":"-0.00000374","TIME_SYSTEM":"UTC","OBJECT_ID":"2020-062AF","MEAN_ANOMALY":"302.3607","GP_ID":"184165447","TLE_LINE2":"2 46354  53.0536 206.2084 0001438  57.7521 302.3607 15.06393412 56209","NORAD_CAT_ID":"46354","DECAY_DATE":null,"TLE_LINE1":"1 46354U 20062AF  21248.59855683 -.00000374  00000-0 -61833-5 0  9990","RCS_SIZE":"LARGE","EPOCH":"2021-09-05T14:21:55.310112","PERIOD":"95.593","EPHEMERIS_TYPE":"0","SITE":"AFETR","REV_AT_EPOCH":"5620","OBJECT_NAME":"STARLINK-1657","ELEMENT_SET_NO":"999","SEMIMAJOR_AXIS":"6925.369","CENTER_NAME":"EARTH","INCLINATION":"53.0536","OBJECT_TYPE":"PAYLOAD","MEAN_MOTION_DDOT":"0.0000000000000","PERIAPSIS":"546.238","BSTAR":"-0.00000618330000","MEAN_ELEMENT_THEORY":"SGP4","MEAN_MOTION":"15.06393412","RA_OF_ASC_NODE":"206.2084","REF_FRAME":"TEME","LAUNCH_DATE":"2020-09-03"},{"RCS_SIZE":"LARGE","EPOCH":"2021-09-05T07:22:36.626304","PERIOD":"95.592","EPHEMERIS_TYPE":"0","TLE_LINE2":"2 46355  53.0541 207.5171 0001509  64.7474 295.3671 15.06395997 56168","NORAD_CAT_ID":"46355","GP_ID":"184140750","DECAY_DATE":null,"TLE_LINE1":"1 46355U 20062AG  21248.30736836 -.00000660  00000-0 -25406-4 0  9991","MEAN_MOTION_DOT":"-0.00000660","TIME_SYSTEM":"UTC","OBJECT_ID":"2020-062AG","MEAN_ANOMALY":"295.3671","COUNTRY_CODE":"US","APOAPSIS":"548.271","ECCENTRICITY":"0.00015090","CLASSIFICATION_TYPE":"U","ARG_OF_PERICENTER":"64.7474","FILE":"3109252","RA_OF_ASC_NODE":"207.5171","MEAN_MOTION":"15.06395997","REF_FRAME":"TEME","LAUNCH_DATE":"2020-09-03","PERIAPSIS":"546.181","BSTAR":"-0.00002540600000","MEAN_ELEMENT_THEORY":"SGP4","CENTER_NAME":"EARTH","INCLINATION":"53.0541","OBJECT_TYPE":"PAYLOAD","MEAN_MOTION_DDOT":"0.0000000000000","SITE":"AFETR","REV_AT_EPOCH":"5616","OBJECT_NAME":"STARLINK-1661","ELEMENT_SET_NO":"999","SEMIMAJOR_AXIS":"6925.361"},{"BSTAR":"-0.00002471200000","PERIAPSIS":"546.285","MEAN_ELEMENT_THEORY":"SGP4","RA_OF_ASC_NODE":"206.2875","MEAN_MOTION":"15.06397005","LAUNCH_DATE":"2020-09-03","REF_FRAME":"TEME","SITE":"AFETR","ELEMENT_SET_NO":"999","SEMIMAJOR_AXIS":"6925.358","REV_AT_EPOCH":"5620","OBJECT_NAME":"STARLINK-1665","CENTER_NAME":"EARTH","OBJECT_TYPE":"PAYLOAD","MEAN_MOTION_DDOT":"0.0000000000000","INCLINATION":"53.0549","DECAY_DATE":null,"TLE_LINE2":"2 46356  53.0549 206.2875 0001354  47.1232 312.9870 15.06397005 56203","NORAD_CAT_ID":"46356","GP_ID":"184166449","TLE_LINE1":"1 46356U 20062AH  21248.58380976 -.00000649  00000-0 -24712-4 0  9998","RCS_SIZE":"LARGE","EPOCH":"2021-09-05T14:00:41.163264","EPHEMERIS_TYPE":"0","PERIOD":"95.592","APOAPSIS":"548.160","COUNTRY_CODE":"US","ARG_OF_PERICENTER":"47.1232","FILE":"3109348","ECCENTRICITY":"0.00013540","CLASSIFICATION_TYPE":"U","MEAN_MOTION_DOT":"-0.00000649","TIME_SYSTEM":"UTC","MEAN_ANOMALY":"312.9870","OBJECT_ID":"2020-062AH"},{"MEAN_MOTION":"15.06403042","RA_OF_ASC_NODE":"187.7812","LAUNCH_DATE":"2020-09-03","REF_FRAME":"TEME","BSTAR":"0.00012195000000","PERIAPSIS":"545.972","MEAN_ELEMENT_THEORY":"SGP4","CENTER_NAME":"EARTH","OBJECT_TYPE":"PAYLOAD","MEAN_MOTION_DDOT":"0.0000000000000","INCLINATION":"53.0546","SITE":"AFETR","SEMIMAJOR_AXIS":"6925.339","ELEMENT_SET_NO":"999","REV_AT_EPOCH":"5643","OBJECT_NAME":"STARLINK-1666","RCS_SIZE":"LARGE","EPOCH":"2021-09-05T06:00:20.181312","EPHEMERIS_TYPE":"0","PERIOD":"95.592","DECAY_DATE":null,"TLE_LINE2":"2 46357  53.0546 187.7812 0001780  60.4496 299.6670 15.06403042 56431","NORAD_CAT_ID":"46357","GP_ID":"184140258","TLE_LINE1":"1 46357U 20062AJ  21248.25023358  .00001535  00000-0  12195-3 0  9995","MEAN_MOTION_DOT":"0.00001535","TIME_SYSTEM":"UTC","MEAN_ANOMALY":"299.6670","OBJECT_ID":"2020-062AJ","APOAPSIS":"548.437","COUNTRY_CODE":"US","ARG_OF_PERICENTER":"60.4496","FILE":"3109252","ECCENTRICITY":"0.00017800","CLASSIFICATION_TYPE":"U"},{"ARG_OF_PERICENTER":"57.4518","FILE":"3109252","ECCENTRICITY":"0.00015910","CLASSIFICATION_TYPE":"U","APOAPSIS":"548.342","COUNTRY_CODE":"US","MEAN_ANOMALY":"302.6625","OBJECT_ID":"2020-062AK","MEAN_MOTION_DOT":"0.00000968","TIME_SYSTEM":"UTC","TLE_LINE1":"1 46358U 20062AK  21248.36266509  .00000968  00000-0  83904-4 0  9991","DECAY_DATE":null,"TLE_LINE2":"2 46358  53.0531 207.2766 0001591  57.4518 302.6625 15.06391234 56178","NORAD_CAT_ID":"46358","GP_ID":"184140509","EPHEMERIS_TYPE":"0","PERIOD":"95.593","RCS_SIZE":"LARGE","EPOCH":"2021-09-05T08:42:14.263776","SEMIMAJOR_AXIS":"6925.375","ELEMENT_SET_NO":"999","REV_AT_EPOCH":"5617","OBJECT_NAME":"STARLINK-1690","SITE":"AFETR","OBJECT_TYPE":"PAYLOAD","MEAN_MOTION_DDOT":"0.0000000000000","INCLINATION":"53.0531","CENTER_NAME":"EARTH","MEAN_ELEMENT_THEORY":"SGP4","BSTAR":"0.00008390400000","PERIAPSIS":"546.139","LAUNCH_DATE":"2020-09-03","REF_FRAME":"TEME","MEAN_MOTION":"15.06391234","RA_OF_ASC_NODE":"207.2766"},{"MEAN_MOTION":"15.06402207","RA_OF_ASC_NODE":"160.5764","LAUNCH_DATE":"2020-09-03","REF_FRAME":"TEME","BSTAR":"0.00001850900000","PERIAPSIS":"545.904","MEAN_ELEMENT_THEORY":"SGP4","CENTER_NAME":"EARTH","MEAN_MOTION_DDOT":"0.0000000000000","OBJECT_TYPE":"PAYLOAD","INCLINATION":"53.0549","SITE":"AFETR","SEMIMAJOR_AXIS":"6925.342","ELEMENT_SET_NO":"999","OBJECT_NAME":"STARLINK-1707","REV_AT_EPOCH":"5685","EPOCH":"2021-09-05T17:46:56.081568","RCS_SIZE":"LARGE","EPHEMERIS_TYPE":"0","PERIOD":"95.592","DECAY_DATE":null,"TLE_LINE2":"2 46359  53.0549 160.5764 0001881  71.2836 288.8357 15.06402207 56851","NORAD_CAT_ID":"46359","GP_ID":"184165197","TLE_LINE1":"1 46359U 20062AL  21248.74092687 -.00000006  00000-0  18509-4 0  9991","TIME_SYSTEM":"UTC","MEAN_MOTION_DOT":"-0.00000006","MEAN_ANOMALY":"288.8357","OBJECT_ID":"2020-062AL","APOAPSIS":"548.509","COUNTRY_CODE":"US","FILE":"3109348","ARG_OF_PERICENTER":"71.2836","CLASSIFICATION_TYPE":"U","ECCENTRICITY":"0.00018810"}];
